{
  "type": "FeatureCollection",
  "features": [
    {
      "type": "Feature",
      "properties": {
        "norad_id": 34343,
        "name": "COSMOS 2251 DEB",
        "group": "cosmos-2251-debris",
        "lat": -18.73155408732951,
        "lon": -110.89530565542094,
        "alt_km": 679.1037431358845,
        "timestamp": "2025-12-26T03:50:12.488192+00:00",
        "meta_object_name": "COSMOS 2251 DEB",
        "meta_object_id": "1993-036PR",
        "meta_epoch": "2025-12-25T14:24:03.104352",
        "meta_mean_motion": 14.69629418,
        "meta_eccentricity": 0.0024459,
        "meta_inclination": 74.0197,
        "meta_ra_of_asc_node": 64.6137,
        "meta_arg_of_pericenter": 335.597,
        "meta_mean_anomaly": 143.3428,
        "meta_ephemeris_type": 0,
        "meta_classification_type": "U",
        "meta_norad_cat_id": 34343,
        "meta_element_set_no": 999,
        "meta_rev_at_epoch": 88919,
        "meta_bstar": 0.0013766,
        "meta_mean_motion_dot": 8.202e-05,
        "meta_mean_motion_ddot": 0,
        "tle_line1": "1 34343U 93036PR  25359.60003593  .00008202  00000+0  13766-2 0  9994",
        "tle_line2": "2 34343  74.0197  64.6137 0024459 335.5970 143.3428 14.69629418889190"
      },
      "geometry": {
        "type": "Point",
        "coordinates": [
          -110.89530565542094,
          -18.73155408732951
        ]
      }
    },
    {
      "type": "Feature",
      "properties": {
        "norad_id": 34344,
        "name": "COSMOS 2251 DEB",
        "group": "cosmos-2251-debris",
        "lat": -70.24931437105508,
        "lon": -40.45228348551082,
        "alt_km": 732.6377311211891,
        "timestamp": "2025-12-26T03:50:12.488203+00:00",
        "meta_object_name": "COSMOS 2251 DEB",
        "meta_object_id": "1993-036PS",
        "meta_epoch": "2025-12-20T16:41:07.998144",
        "meta_mean_motion": 14.16466858,
        "meta_eccentricity": 0.01566321,
        "meta_inclination": 73.9786,
        "meta_ra_of_asc_node": 96.1449,
        "meta_arg_of_pericenter": 278.7098,
        "meta_mean_anomaly": 204.8003,
        "meta_ephemeris_type": 0,
        "meta_classification_type": "U",
        "meta_norad_cat_id": 34344,
        "meta_element_set_no": 999,
        "meta_rev_at_epoch": 86209,
        "meta_bstar": 0.0013151537,
        "meta_mean_motion_dot": 2.924e-05,
        "meta_mean_motion_ddot": 0,
        "tle_line1": "1 34344U 93036PS  25354.69523146  .00002924  00000+0  13152-2 0  9994",
        "tle_line2": "2 34344  73.9786  96.1449 0156632 278.7098 204.8003 14.16466858862098"
      },
      "geometry": {
        "type": "Point",
        "coordinates": [
          -40.45228348551082,
          -70.24931437105508
        ]
      }
    },
    {
      "type": "Feature",
      "properties": {
        "norad_id": 34346,
        "name": "COSMOS 2251 DEB",
        "group": "cosmos-2251-debris",
        "lat": -69.64799838122845,
        "lon": -121.73433597525226,
        "alt_km": 1051.5311194236647,
        "timestamp": "2025-12-26T03:50:12.488213+00:00",
        "meta_object_name": "COSMOS 2251 DEB",
        "meta_object_id": "1993-036PU",
        "meta_epoch": "2025-12-24T19:46:25.139712",
        "meta_mean_motion": 13.99731331,
        "meta_eccentricity": 0.0206198,
        "meta_inclination": 73.9946,
        "meta_ra_of_asc_node": 291.2772,
        "meta_arg_of_pericenter": 107.3009,
        "meta_mean_anomaly": 286.0021,
        "meta_ephemeris_type": 0,
        "meta_classification_type": "U",
        "meta_norad_cat_id": 34346,
        "meta_element_set_no": 999,
        "meta_rev_at_epoch": 85579,
        "meta_bstar": 0.00097331009,
        "meta_mean_motion_dot": 1.689e-05,
        "meta_mean_motion_ddot": 0,
        "tle_line1": "1 34346U 93036PU  25358.82390208  .00001689  00000+0  97331-3 0  9995",
        "tle_line2": "2 34346  73.9946 291.2772 0206198 107.3009 286.0021 13.99731331855799"
      },
      "geometry": {
        "type": "Point",
        "coordinates": [
          -121.73433597525226,
          -69.64799838122845
        ]
      }
    },
    {
      "type": "Feature",
      "properties": {
        "norad_id": 34383,
        "name": "COSMOS 2251 DEB",
        "group": "cosmos-2251-debris",
        "lat": 22.65756893944448,
        "lon": -83.13544262941991,
        "alt_km": 532.7182647523423,
        "timestamp": "2025-12-26T03:50:12.488224+00:00",
        "meta_object_name": "COSMOS 2251 DEB",
        "meta_object_id": "1993-036PY",
        "meta_epoch": "2025-12-25T20:04:07.700736",
        "meta_mean_motion": 15.10241588,
        "meta_eccentricity": 0.0003015,
        "meta_inclination": 74.0189,
        "meta_ra_of_asc_node": 270.6624,
        "meta_arg_of_pericenter": 43.1972,
        "meta_mean_anomaly": 21.5447,
        "meta_ephemeris_type": 0,
        "meta_classification_type": "U",
        "meta_norad_cat_id": 34383,
        "meta_element_set_no": 999,
        "meta_rev_at_epoch": 89311,
        "meta_bstar": 0.0033964,
        "meta_mean_motion_dot": 0.00055974,
        "meta_mean_motion_ddot": 0,
        "tle_line1": "1 34383U 93036PY  25359.83620024  .00055974  00000+0  33964-2 0  9997",
        "tle_line2": "2 34383  74.0189 270.6624 0003015  43.1972  21.5447 15.10241588893114"
      },
      "geometry": {
        "type": "Point",
        "coordinates": [
          -83.13544262941991,
          22.65756893944448
        ]
      }
    },
    {
      "type": "Feature",
      "properties": {
        "norad_id": 34387,
        "name": "COSMOS 2251 DEB",
        "group": "cosmos-2251-debris",
        "lat": 25.467687284119418,
        "lon": -165.2139322260743,
        "alt_km": 751.8003225944076,
        "timestamp": "2025-12-26T03:50:12.488234+00:00",
        "meta_object_name": "COSMOS 2251 DEB",
        "meta_object_id": "1993-036QC",
        "meta_epoch": "2025-12-25T14:43:00.054912",
        "meta_mean_motion": 14.43847706,
        "meta_eccentricity": 0.0038885,
        "meta_inclination": 74.0385,
        "meta_ra_of_asc_node": 187.9673,
        "meta_arg_of_pericenter": 282.6327,
        "meta_mean_anomaly": 143.236,
        "meta_ephemeris_type": 0,
        "meta_classification_type": "U",
        "meta_norad_cat_id": 34387,
        "meta_element_set_no": 999,
        "meta_rev_at_epoch": 88367,
        "meta_bstar": 0.00031273,
        "meta_mean_motion_dot": 1.048e-05,
        "meta_mean_motion_ddot": 0,
        "tle_line1": "1 34387U 93036QC  25359.61319508  .00001048  00000+0  31273-3 0  9994",
        "tle_line2": "2 34387  74.0385 187.9673 0038885 282.6327 143.2360 14.43847706883672"
      },
      "geometry": {
        "type": "Point",
        "coordinates": [
          -165.2139322260743,
          25.467687284119418
        ]
      }
    },
    {
      "type": "Feature",
      "properties": {
        "norad_id": 34388,
        "name": "COSMOS 2251 DEB",
        "group": "cosmos-2251-debris",
        "lat": -72.48512905892694,
        "lon": 132.8481994325527,
        "alt_km": 726.2696426141783,
        "timestamp": "2025-12-26T03:50:12.488335+00:00",
        "meta_object_name": "COSMOS 2251 DEB",
        "meta_object_id": "1993-036QD",
        "meta_epoch": "2025-12-25T15:16:58.440000",
        "meta_mean_motion": 14.49424422,
        "meta_eccentricity": 0.0013605,
        "meta_inclination": 74.0379,
        "meta_ra_of_asc_node": 198.9153,
        "meta_arg_of_pericenter": 246.3922,
        "meta_mean_anomaly": 182.544,
        "meta_ephemeris_type": 0,
        "meta_classification_type": "U",
        "meta_norad_cat_id": 34388,
        "meta_element_set_no": 999,
        "meta_rev_at_epoch": 88342,
        "meta_bstar": 0.00064722,
        "meta_mean_motion_dot": 2.453e-05,
        "meta_mean_motion_ddot": 0,
        "tle_line1": "1 34388U 93036QD  25359.63678750  .00002453  00000+0  64722-3 0  9990",
        "tle_line2": "2 34388  74.0379 198.9153 0013605 246.3922 182.5440 14.49424422883422"
      },
      "geometry": {
        "type": "Point",
        "coordinates": [
          132.8481994325527,
          -72.48512905892694
        ]
      }
    },
    {
      "type": "Feature",
      "properties": {
        "norad_id": 34389,
        "name": "COSMOS 2251 DEB",
        "group": "cosmos-2251-debris",
        "lat": -70.88297846817287,
        "lon": 169.15197844992892,
        "alt_km": 747.8346438472045,
        "timestamp": "2025-12-26T03:50:12.488350+00:00",
        "meta_object_name": "COSMOS 2251 DEB",
        "meta_object_id": "1993-036QE",
        "meta_epoch": "2025-12-24T19:14:40.362720",
        "meta_mean_motion": 14.4155901,
        "meta_eccentricity": 0.00294225,
        "meta_inclination": 74.0174,
        "meta_ra_of_asc_node": 227.4475,
        "meta_arg_of_pericenter": 337.2443,
        "meta_mean_anomaly": 98.9537,
        "meta_ephemeris_type": 0,
        "meta_classification_type": "U",
        "meta_norad_cat_id": 34389,
        "meta_element_set_no": 999,
        "meta_rev_at_epoch": 88186,
        "meta_bstar": 0.00028914905,
        "meta_mean_motion_dot": 9.18e-06,
        "meta_mean_motion_ddot": 0,
        "tle_line1": "1 34389U 93036QE  25358.80185605  .00000918  00000+0  28915-3 0  9999",
        "tle_line2": "2 34389  74.0174 227.4475 0029422 337.2443  98.9537 14.41559010881860"
      },
      "geometry": {
        "type": "Point",
        "coordinates": [
          169.15197844992892,
          -70.88297846817287
        ]
      }
    }
  ]
}